{"type": "FeatureCollection", "features": [{"type": "Feature", "properties": {"norad_id": 25590, "name": "COSMOS 2361", "group": "musson", "lat": -13.916029848848959, "lon": -16.541943822935036, "alt_km": 987.138026679866, "timestamp": "2025-12-11T05:00:26.578542+00:00", "meta": {"OBJECT_NAME": "COSMOS 2361", "OBJECT_ID": "1998-076A", "EPOCH": "2025-12-10T17:40:58.063296", "MEAN_MOTION": 13.73217206, "ECCENTRICITY": 0.00300527, "INCLINATION": 82.9338, "RA_OF_ASC_NODE": 345.568, "ARG_OF_PERICENTER": 271.4272, "MEAN_ANOMALY": 262.9732, "EPHEMERIS_TYPE": 0, "CLASSIFICATION_TYPE": "U", "NORAD_CAT_ID": 25590, "ELEMENT_SET_NO": 999, "REV_AT_EPOCH": 35083, "BSTAR": 9.2542067e-05, "MEAN_MOTION_DOT": 1.01e-06, "MEAN_MOTION_DDOT": 0}, "tle": {"line1": "1 25590U 98076A   25344.73678314  .00000101  00000+0  92542-4 0  9995", "line2": "2 25590  82.9338 345.5680 0030052 271.4272 262.9732 13.73217206350834"}}, "geometry": {"type": "Point", "coordinates": [-16.541943822935036, -13.916029848848959]}}, {"type": "Feature", "properties": {"norad_id": 26818, "name": "COSMOS 2378", "group": "musson", "lat": 52.50476171802905, "lon": 10.173040530305778, "alt_km": 1001.5513448524543, "timestamp": "2025-12-11T05:00:26.578564+00:00", "meta": {"OBJECT_NAME": "COSMOS 2378", "OBJECT_ID": "2001-023A", "EPOCH": "2025-12-10T19:06:21.123648", "MEAN_MOTION": 13.74141768, "ECCENTRICITY": 0.0032294, "INCLINATION": 82.9273, "RA_OF_ASC_NODE": 1.1662, "ARG_OF_PERICENTER": 210.39, "MEAN_ANOMALY": 323.142, "EPHEMERIS_TYPE": 0, "CLASSIFICATION_TYPE": "U", "NORAD_CAT_ID": 26818, "ELEMENT_SET_NO": 999, "REV_AT_EPOCH": 22896, "BSTAR": 5.8669144e-05, "MEAN_MOTION_DOT": 7e-07, "MEAN_MOTION_DDOT": 0}, "tle": {"line1": "1 26818U 01023A   25344.79607782  .00000070  00000+0  58669-4 0  9999", "line2": "2 26818  82.9273   1.1662 0032294 210.3900 323.1420 13.74141768228963"}}, "geometry": {"type": "Point", "coordinates": [10.173040530305778, 52.50476171802905]}}, {"type": "Feature", "properties": {"norad_id": 27436, "name": "COSMOS 2389", "group": "musson", "lat": -73.08151774722651, "lon": 152.12381288926736, "alt_km": 1023.0306480585823, "timestamp": "2025-12-11T05:00:26.578578+00:00", "meta": {"OBJECT_NAME": "COSMOS 2389", "OBJECT_ID": "2002-026A", "EPOCH": "2025-12-10T10:54:24.322752", "MEAN_MOTION": 13.75154267, "ECCENTRICITY": 0.00476693, "INCLINATION": 82.95, "RA_OF_ASC_NODE": 308.6765, "ARG_OF_PERICENTER": 66.9463, "MEAN_ANOMALY": 56.1274, "EPHEMERIS_TYPE": 0, "CLASSIFICATION_TYPE": "U", "NORAD_CAT_ID": 27436, "ELEMENT_SET_NO": 999, "REV_AT_EPOCH": 18117, "BSTAR": 9.1929717e-05, "MEAN_MOTION_DOT": 1.04e-06, "MEAN_MOTION_DDOT": 0}, "tle": {"line1": "1 27436U 02026A   25344.45444818  .00000104  00000+0  91930-4 0  9998", "line2": "2 27436  82.9500 308.6765 0047669  66.9463  56.1274 13.75154267181173"}}, "geometry": {"type": "Point", "coordinates": [152.12381288926736, -73.08151774722651]}}, {"type": "Feature", "properties": {"norad_id": 27818, "name": "COSMOS 2398", "group": "musson", "lat": -42.59708358933434, "lon": 100.36125542886435, "alt_km": 1004.5832695769186, "timestamp": "2025-12-11T05:00:26.578589+00:00", "meta": {"OBJECT_NAME": "COSMOS 2398", "OBJECT_ID": "2003-023A", "EPOCH": "2025-12-10T13:01:08.734944", "MEAN_MOTION": 13.72385408, "ECCENTRICITY": 0.0032507, "INCLINATION": 82.9484, "RA_OF_ASC_NODE": 274.3174, "ARG_OF_PERICENTER": 117.6703, "MEAN_ANOMALY": 55.4197, "EPHEMERIS_TYPE": 0, "CLASSIFICATION_TYPE": "U", "NORAD_CAT_ID": 27818, "ELEMENT_SET_NO": 999, "REV_AT_EPOCH": 12786, "BSTAR": 9.8489e-05, "MEAN_MOTION_DOT": 1.06e-06, "MEAN_MOTION_DDOT": 0}, "tle": {"line1": "1 27818U 03023A   25344.54246221  .00000106  00000+0  98489-4 0  9996", "line2": "2 27818  82.9484 274.3174 0032507 117.6703  55.4197 13.72385408127869"}}, "geometry": {"type": "Point", "coordinates": [100.36125542886435, -42.59708358933434]}}, {"type": "Feature", "properties": {"norad_id": 28380, "name": "COSMOS 2407", "group": "musson", "lat": 36.08086475786874, "lon": -140.80822241160578, "alt_km": 946.9807115107651, "timestamp": "2025-12-11T05:00:26.578601+00:00", "meta": {"OBJECT_NAME": "COSMOS 2407", "OBJECT_ID": "2004-028A", "EPOCH": "2025-12-10T21:54:15.310944", "MEAN_MOTION": 13.76313375, "ECCENTRICITY": 0.00403915, "INCLINATION": 82.9609, "RA_OF_ASC_NODE": 214.2454, "ARG_OF_PERICENTER": 59.8093, "MEAN_ANOMALY": 311.262, "EPHEMERIS_TYPE": 0, "CLASSIFICATION_TYPE": "U", "NORAD_CAT_ID": 28380, "ELEMENT_SET_NO": 999, "REV_AT_EPOCH": 7398, "BSTAR": 6.9079881e-05, "MEAN_MOTION_DOT": 8.3e-07, "MEAN_MOTION_DDOT": 0}, "tle": {"line1": "1 28380U 04028A   25344.91267721  .00000083  00000+0  69080-4 0  9995", "line2": "2 28380  82.9609 214.2454 0040391  59.8093 311.2620 13.76313375 73981"}}, "geometry": {"type": "Point", "coordinates": [-140.80822241160578, 36.08086475786874]}}, {"type": "Feature", "properties": {"norad_id": 28521, "name": "COSMOS 2414", "group": "musson", "lat": -56.19431013124084, "lon": 16.468976016541202, "alt_km": 944.4063735446662, "timestamp": "2025-12-11T05:00:26.578612+00:00", "meta": {"OBJECT_NAME": "COSMOS 2414", "OBJECT_ID": "2005-002A", "EPOCH": "2025-12-10T19:13:20.566272", "MEAN_MOTION": 13.87902537, "ECCENTRICITY": 0.0040783, "INCLINATION": 82.9493, "RA_OF_ASC_NODE": 186.1261, "ARG_OF_PERICENTER": 145.1098, "MEAN_ANOMALY": 215.2752, "EPHEMERIS_TYPE": 0, "CLASSIFICATION_TYPE": "U", "NORAD_CAT_ID": 28521, "ELEMENT_SET_NO": 999, "REV_AT_EPOCH": 5768, "BSTAR": 6.9471423e-05, "MEAN_MOTION_DOT": 9.9e-07, "MEAN_MOTION_DDOT": 0}, "tle": {"line1": "1 28521U 05002A   25344.80093248  .00000099  00000+0  69471-4 0  9995", "line2": "2 28521  82.9493 186.1261 0040783 145.1098 215.2752 13.87902537 57685"}}, "geometry": {"type": "Point", "coordinates": [16.468976016541202, -56.19431013124084]}}, {"type": "Feature", "properties": {"norad_id": 32052, "name": "COSMOS 2429", "group": "musson", "lat": 78.43967596870608, "lon": 21.475688604374426, "alt_km": 951.2364135937669, "timestamp": "2025-12-11T05:00:26.578622+00:00", "meta": {"OBJECT_NAME": "COSMOS 2429", "OBJECT_ID": "2007-038A", "EPOCH": "2025-12-10T18:08:28.709376", "MEAN_MOTION": 13.75149079, "ECCENTRICITY": 0.00393388, "INCLINATION": 82.9803, "RA_OF_ASC_NODE": 344.7714, "ARG_OF_PERICENTER": 43.2725, "MEAN_ANOMALY": 317.151, "EPHEMERIS_TYPE": 0, "CLASSIFICATION_TYPE": "U", "NORAD_CAT_ID": 32052, "ELEMENT_SET_NO": 999, "REV_AT_EPOCH": 91575, "BSTAR": 7.462443e-05, "MEAN_MOTION_DOT": 8.7e-07, "MEAN_MOTION_DDOT": 0}, "tle": {"line1": "1 32052U 07038A   25344.75588784  .00000087  00000+0  74624-4 0  9991", "line2": "2 32052  82.9803 344.7714 0039338  43.2725 317.1510 13.75149079915754"}}, "geometry": {"type": "Point", "coordinates": [21.475688604374426, 78.43967596870608]}}, {"type": "Feature", "properties": {"norad_id": 35635, "name": "COSMOS 2454", "group": "musson", "lat": -81.19707243500257, "lon": 116.82036212315123, "alt_km": 950.5274492343979, "timestamp": "2025-12-11T05:00:26.578633+00:00", "meta": {"OBJECT_NAME": "COSMOS 2454", "OBJECT_ID": "2009-039A", "EPOCH": "2025-12-10T19:05:56.925600", "MEAN_MOTION": 13.89928147, "ECCENTRICITY": 0.00204746, "INCLINATION": 82.9553, "RA_OF_ASC_NODE": 170.1186, "ARG_OF_PERICENTER": 78.9544, "MEAN_ANOMALY": 291.8352, "EPHEMERIS_TYPE": 0, "CLASSIFICATION_TYPE": "U", "NORAD_CAT_ID": 35635, "ELEMENT_SET_NO": 999, "REV_AT_EPOCH": 83123, "BSTAR": 6.3232185e-05, "MEAN_MOTION_DOT": 9.4e-07, "MEAN_MOTION_DDOT": 0}, "tle": {"line1": "1 35635U 09039A   25344.79579775  .00000094  00000+0  63232-4 0  9999", "line2": "2 35635  82.9553 170.1186 0020474  78.9544 291.8352 13.89928147831233"}}, "geometry": {"type": "Point", "coordinates": [116.82036212315123, -81.19707243500257]}}, {"type": "Feature", "properties": {"norad_id": 36519, "name": "COSMOS 2463", "group": "musson", "lat": 55.85578910358319, "lon": 38.3340227749207, "alt_km": 1002.6408266797935, "timestamp": "2025-12-11T05:00:26.578643+00:00", "meta": {"OBJECT_NAME": "COSMOS 2463", "OBJECT_ID": "2010-017A", "EPOCH": "2025-12-10T20:49:29.614368", "MEAN_MOTION": 13.71649017, "ECCENTRICITY": 0.00348303, "INCLINATION": 82.9615, "RA_OF_ASC_NODE": 28.0884, "ARG_OF_PERICENTER": 293.4424, "MEAN_ANOMALY": 240.2088, "EPHEMERIS_TYPE": 0, "CLASSIFICATION_TYPE": "U", "NORAD_CAT_ID": 36519, "ELEMENT_SET_NO": 999, "REV_AT_EPOCH": 78211, "BSTAR": 6.5584697e-05, "MEAN_MOTION_DOT": 7.4e-07, "MEAN_MOTION_DDOT": 0}, "tle": {"line1": "1 36519U 10017A   25344.86770387  .00000074  00000+0  65585-4 0  9990", "line2": "2 36519  82.9615  28.0884 0034830 293.4424 240.2088 13.71649017782115"}}, "geometry": {"type": "Point", "coordinates": [38.3340227749207, 55.85578910358319]}}]}